STARLINK-3191           
1 49770U 21115AY  22205.79091565  .00002456  00000+0  17231-3 0  9993
2 49770  53.2158 322.3475 0001740  44.5064 315.6067 15.08850533 36931
STARLINK-3201           
1 49771U 21115AZ  22205.72837587 -.00000479  00000+0 -11985-4 0  9995
2 49771  53.2176 322.6161 0001568  66.9734 293.1423 15.08834549 35807
GLOBAL-12               
1 49772U 21115BA  22205.50100143  .00012621  00000+0  27130-3 0  9991
2 49772  53.2135 288.0394 0002178  15.4187 344.6887 15.45068828 36273
GLOBAL-13               
1 49773U 21115BB  22205.83253603  .00011357  00000+0  24532-3 0  9996
2 49773  53.2145 287.2893 0003486 256.9505 103.1113 15.45035677 36310
GSAT0223 (GALILEO 27)   
1 49809U 21116A   22202.41438377 -.00000088  00000+0  00000+0 0  9991
2 49809  57.1824  20.1657 0002793 140.4735 217.6493  1.70475990  3855
GSAT0224 (GALILEO 28)   
1 49810U 21116B   22204.87549237 -.00000084  00000+0  00000+0 0  9999
2 49810  57.1842  20.0975 0002610 127.6024  53.4401  1.70476174  3912
2021-117A               
1 49812U 21117A   22206.23631308  .00011446  00000+0  37088-3 0  9998
2 49812  97.3819 281.8875 0010848 197.1075 247.9492 15.32111844 35109
JINZIJING 1 03          
1 49813U 21117B   22206.21457558  .00010220  00000+0  38087-3 0  9999
2 49813  97.3816 281.4547 0011107 188.5193 258.5141 15.27580066 35078
2021-117C               
1 49814U 21117C   22206.18490966  .00015767  00000+0  54618-3 0  9995
2 49814  97.3820 281.7922 0012077 185.2816 226.9745 15.29859928 35096
LIZE 1                  
1 49815U 21117D   22206.17064705  .00015936  00000+0  51522-3 0  9992
2 49815  97.3827 281.8361 0011110 197.7541 246.5997 15.32101545 35098
JINZIJING 5 (GB 5)      
1 49816U 21117E   22206.16824751  .00022828  00000+0  73862-3 0  9996
2 49816  97.3821 282.2899 0014070 203.7355 242.6493 15.31964514 35127
STPSAT-6                
1 49817U 21118A   22205.72549628 -.00000043  00000+0  00000+0 0  9992
2 49817   0.0068 262.0910 0000367 279.7266 270.1102  1.00272265  2291
LDPE-1                  
1 49818U 21118B   22205.84216024 -.00000260  00000+0  00000+0 0  9998
2 49818   0.5350  98.5887 0001368 106.1063 117.5413  1.01196479  2311
GLOBAL-17               
1 49949U 21120A   22205.78564648  .00011619  00000+0  24732-3 0  9998
2 49949  42.0131 110.1850 0006988 297.6271  62.3862 15.44843522 35248
GLOBAL-16               
1 49950U 21120B   22206.13516707  .00012454  00000+0  26127-3 0  9991
2 49950  42.0129 107.5942 0008111 194.9568 165.1035 15.45211405 35296
IXPE                    
1 49954U 21121A   22206.08192917  .00002174  00000+0  13694-3 0  9996
2 49954   0.2304 105.7442 0010996 128.0498 126.1042 14.91500115 34046
SHIJIAN-6 05A (SJ-6 05A)
1 49961U 21122A   22205.88071570  .00004844  00000+0  14505-3 0  9991
2 49961  97.3441 222.4043 0010944 160.4131 199.7535 15.34946268 34789
SHIJIAN-6 05B (SJ-6 05B)
1 49962U 21122B   22205.88071443  .00004830  00000+0  14464-3 0  9990
2 49962  97.3441 222.4043 0010932 160.5325 199.6338 15.34946221 34782
EXPRESS AMU-7           
1 50001U 21123A   22205.75705581 -.00000240  00000+0  00000+0 0  9999
2 50001   0.0421 237.7459 0000060 186.3324 295.9105  1.00270999  2285
EXPRESS AMU-3           
1 50002U 21123B   22206.14979907 -.00000319  00000+0  00000+0 0  9996
2 50002   0.0449 237.8667 0000627  34.7235 187.1576  1.00271059  2231
TIANLIAN 2-02           
1 50005U 21124A   22205.84986280 -.00000009  00000+0  00000+0 0  9994
2 50005   2.4496 282.1222 0003365 180.3877 316.9516  1.00270256  2340
STARLINK-3317           
1 50156U 21125A   22205.81120991 -.00000662  00000+0 -23461-4 0  9995
2 50156  53.2177  72.2439 0002093  71.7861 288.3359 15.08835114 36772
STARLINK-3313           
1 50157U 21125B   22205.83509721  .00005854  00000+0  38598-3 0  9992
2 50157  53.2161  82.1387 0002148  64.4187 295.7026 15.08804384 36643
STARLINK-3309           
1 50158U 21125C   22205.82404640 -.00003380  00000+0 -19435-3 0  9999
2 50158  53.2167  82.1977 0002120  58.9859 301.1341 15.08835837 36660
STARLINK-3297           
1 50159U 21125D   22206.15158365 -.00001673  00000+0 -87039-4 0  9996
2 50159  53.2167  80.7204 0002541  54.6582 305.4648 15.08828971 33105
STARLINK-3288           
1 50160U 21125E   22205.82772233  .00001036  00000+0  83138-4 0  9994
2 50160  53.2180  82.1841 0001727  48.0360 312.0779 15.08846329 36605
STARLINK-3304           
1 50161U 21125F   22205.83141231 -.00001807  00000+0 -95434-4 0  9994
2 50161  53.2151  82.1551 0001731  54.2217 305.8936 15.08837525 36116
STARLINK-3303           
1 50162U 21125G   22206.25001157  .00101495  00000+0  55406-3 0  9990
2 50162  53.2043 353.7633 0003598  10.0538  35.9666 15.79124228 37382
STARLINK-3306           
1 50163U 21125H   22206.01453188 -.00001228  00000+0 -59088-4 0  9996
2 50163  53.2186  61.3211 0001722  63.0433 297.0734 15.08843293 36427
STARLINK-3298           
1 50165U 21125K   22205.81669076  .00000139  00000+0  26821-4 0  9997
2 50165  53.2169  82.2277 0001821  59.0358 301.0813 15.08842557 36645
STARLINK-3305           
1 50166U 21125L   22205.90592537 -.00000203  00000+0  53593-5 0  9995
2 50166  53.2172  71.8126 0001651  54.8873 305.2273 15.08839130 36743
STARLINK-3271           
1 50167U 21125M   22206.14054413 -.00002070  00000+0 -11198-3 0  9997
2 50167  53.2182  80.7678 0002192  65.9835 294.1386 15.08833129 36167
STARLINK-3296           
1 50168U 21125N   22206.03473236  .00005187  00000+0  34366-3 0  9996
2 50168  53.2166  71.2357 0001758  49.7005 310.4141 15.08848432 33672
STARLINK-3301           
1 50169U 21125P   22206.00529269  .00000710  00000+0  62733-4 0  9999
2 50169  53.2186  71.3908 0002397  55.5450 304.5769 15.08828549 33685
STARLINK-3245           
1 50170U 21125Q   22206.09361098 -.00000378  00000+0 -56460-5 0  9997
2 50170  53.2182  70.9677 0001869  55.0477 305.0690 15.08849440 36290
STARLINK-3286           
1 50171U 21125R   22205.90960320  .00006952  00000+0  45432-3 0  9997
2 50171  53.2180  71.7973 0001834  55.8340 304.2826 15.08852082 36261
STARLINK-3287           
1 50172U 21125S   22206.02000878 -.00000061  00000+0  14295-4 0  9995
2 50172  53.2187  71.3198 0002009  62.1339 297.9856 15.08839223 36283
STARLINK-3289           
1 50173U 21125T   22206.11389655 -.00001290  00000+0 -62708-4 0  9997
2 50173  53.2240  60.8698 0007517  86.5650 273.6202 15.08846020 33845
STARLINK-3292           
1 50174U 21125U   22205.87649122 -.00000244  00000+0  27672-5 0  9997
2 50174  53.2168  71.9641 0001782  64.3967 295.7210 15.08835526 36799
STARLINK-3291           
1 50175U 21125V   22206.03104573  .00000119  00000+0  25558-4 0  9993
2 50175  53.2174  71.2538 0001723  61.8682 298.2484 15.08841236 36286
STARLINK-3293           
1 50176U 21125W   22206.01265023  .00000584  00000+0  54817-4 0  9996
2 50176  53.2168  71.3527 0002207  58.4259 301.6948 15.08843475 33681
STARLINK-3282           
1 50177U 21125X   22205.89120667  .00004981  00000+0  33071-3 0  9999
2 50177  53.2172  71.8953 0002114  62.5507 297.5700 15.08855430 36758
STARLINK-3284           
1 50178U 21125Y   22206.04944692  .00001452  00000+0  10929-3 0  9997
2 50178  53.2163  71.1676 0001855  58.4342 301.6831 15.08846968 36282
STARLINK-3283           
1 50179U 21125Z   22205.88385366  .00000532  00000+0  51501-4 0  9996
2 50179  53.2185  71.9248 0002174  55.8525 304.2674 15.08842943 36754
STARLINK-3265           
1 50180U 21125AA  22206.00161179  .00000235  00000+0  32883-4 0  9999
2 50180  53.2182  71.3977 0002346  66.6741 293.4498 15.08837139 33680
STARLINK-3285           
1 50181U 21125AB  22206.06049862  .00005492  00000+0  36281-3 0  9995
2 50181  53.2180  71.1242 0002094  54.3640 305.7547 15.08850890 36295
STARLINK-3277           
1 50182U 21125AC  22205.92065035 -.00000681  00000+0 -24678-4 0  9995
2 50182  53.2186  71.7529 0002208  53.1845 306.9349 15.08841566 36795
STARLINK-3281           
1 50183U 21125AD  22205.92433002  .00000971  00000+0  79116-4 0  9996
2 50183  53.2185  71.7446 0002834  66.8524 293.2767 15.08842680 36805
STARLINK-3279           
1 50185U 21125AF  22206.06416949 -.00000349  00000+0 -38066-5 0  9996
2 50185  53.2188  71.1152 0002316  51.3533 308.7667 15.08842589 36306
STARLINK-3274           
1 50186U 21125AG  22206.07797141 -.00003291  00000+0 -18876-3 0  9998
2 50186  53.2176  81.0380 0002661  58.1132 302.0119 15.08832599 36152
STARLINK-3272           
1 50187U 21125AH  22206.10557087 -.00001602  00000+0 -82610-4 0  9998
2 50187  53.2167  60.9176 0001934  48.1674 311.9483 15.08831852 33829
STARLINK-3275           
1 50188U 21125AJ  22205.84429251 -.00000115  00000+0  10876-4 0  9992
2 50188  53.2173  62.0835 0001570  62.7935 297.3217 15.08844986 36928
STARLINK-3276           
1 50189U 21125AK  22206.11201365 -.00001431  00000+0 -71807-4 0  9992
2 50189  53.2181  70.8921 0001687  56.4041 303.7112 15.08835517 36306
STARLINK-3268           
1 50190U 21125AL  22205.89581314  .00002791  00000+0  19338-3 0  9991
2 50190  53.2188  61.8585 0001787  54.7251 305.3908 15.08843110 36406
STARLINK-3273           
1 50191U 21125AM  22206.03747649 -.00000572  00000+0 -17836-4 0  9993
2 50191  53.2147  81.2311 0002210  58.3602 301.7606 15.08839041 33542
STARLINK-3259           
1 50192U 21125AN  22206.02461104 -.00000894  00000+0 -38093-4 0  9997
2 50192  53.2178  61.2845 0001707  50.0052 310.1090 15.08840236 33814
STARLINK-3261           
1 50193U 21125AP  22205.90316647 -.00000334  00000+0 -28864-5 0  9990
2 50193  53.2187  61.8234 0001787  50.4300 309.6849 15.08841140 36409
STARLINK-3269           
1 50194U 21125AQ  22206.02093158 -.00000297  00000+0 -53678-6 0  9994
2 50194  53.2180  61.2932 0001635  59.1077 301.0076 15.08839677 36423
STARLINK-3266           
1 50195U 21125AR  22205.89948635 -.00000472  00000+0 -11578-4 0  9994
2 50195  53.2185  61.8418 0001438  74.6297 285.4854 15.08842202 36888
